     2              NAVIGATION DATA                         RINEX VERSION / TYPE
CCRINEXN V1.6.0 UX  CDDIS               15-AUG-16 15:33     PGM / RUN BY / DATE 
IGS BROADCAST EPHEMERIS FILE                                COMMENT             
    0.8382D-08  0.2235D-07 -0.5960D-07 -0.1192D-06          ION ALPHA           
    0.9216D+05  0.1147D+06 -0.6554D+05 -0.5898D+06          ION BETA            
   -0.186264514923D-08-0.532907051820D-14   147456     1910 DELTA-UTC: A0,A1,T,W
    17                                                      LEAP SECONDS        
                                                            END OF HEADER       
22 16  8 14  6  0  0.0 0.272084493190D-03-0.966338120634D-11 0.000000000000D+00
    0.540000000000D+02 0.174687500000D+02 0.563273462601D-08-0.300001819617D+01
    0.603497028351D-06 0.755125132855D-02 0.650621950626D-05 0.515374882698D+04
    0.216000000000D+05 0.132247805595D-06-0.265461926145D+01-0.670552253723D-07
    0.923196295289D+00 0.234000000000D+03-0.187798381788D+01-0.840963600938D-08
    0.423589072757D-09 0.100000000000D+01 0.191000000000D+04 0.000000000000D+00
    0.200000000000D+01 0.000000000000D+00-0.176951289177D-07 0.540000000000D+02
    0.144000000000D+05 0.400000000000D+01 0.000000000000D+00 0.000000000000D+00
23 16  8 14  6  0  0.0-0.186054967344D-03-0.147792889038D-11 0.000000000000D+00
    0.550000000000D+02-0.150625000000D+02 0.516342923973D-08 0.247520194699D+01
   -0.795349478722D-06 0.111472522840D-01 0.803172588348D-05 0.515362865639D+04
    0.216000000000D+05-0.147148966789D-06-0.157584987343D+01-0.214204192162D-06
    0.945182451603D+00 0.219562500000D+03-0.253838316982D+01-0.811712386195D-08
   -0.337514072246D-09 0.100000000000D+01 0.191000000000D+04 0.000000000000D+00
    0.200000000000D+01 0.000000000000D+00-0.200234353542D-07 0.550000000000D+02
    0.144000000000D+05 0.000000000000D+00 0.000000000000D+00 0.000000000000D+00
24 16  8 14  6  0  0.0-0.216006301343D-04-0.568434188608D-12 0.000000000000D+00
    0.510000000000D+02 0.635937500000D+02 0.473341145130D-08 0.194966399204D+01
    0.338442623615D-05 0.454427755903D-02 0.947527587414D-05 0.515374173737D+04
    0.216000000000D+05-0.139698386192D-06-0.550424878857D+00 0.115483999252D-06
    0.948727112350D+00 0.190343750000D+03 0.404012981448D+00-0.809069415274D-08
   -0.148220459691D-09 0.000000000000D+00 0.191000000000D+04 0.000000000000D+00
    0.200000000000D+01 0.000000000000D+00 0.232830643654D-08 0.510000000000D+02
    0.194700000000D+05 0.400000000000D+01 0.000000000000D+00 0.000000000000D+00
26 16  8 14  6  0  0.0-0.447674654424D-03-0.864019966684D-11 0.000000000000D+00
    0.510000000000D+02 0.570937500000D+02 0.464269334088D-08-0.794019360539D+00
    0.299140810967D-05 0.916769378819D-03 0.343471765518D-05 0.515356217575D+04
    0.216000000000D+05 0.204890966415D-07 0.513201759268D+00-0.279396772385D-07
    0.960431530766D+00 0.316625000000D+03 0.385479455167D-01-0.838106295475D-08
   -0.114290478123D-10 0.100000000000D+01 0.191000000000D+04 0.000000000000D+00
    0.200000000000D+01 0.000000000000D+00 0.698491930962D-08 0.510000000000D+02
    0.144000000000D+05 0.000000000000D+00 0.000000000000D+00 0.000000000000D+00
27 16  8 14  6  0  0.0 0.126495026052D-03 0.454747350886D-11 0.000000000000D+00
    0.980000000000D+02-0.964375000000D+02 0.417660254369D-08-0.252310628352D+01
   -0.488758087158D-05 0.378305616323D-02 0.510737299919D-05 0.515365071106D+04
    0.216000000000D+05 0.558793544769D-08 0.156468616709D+01 0.372529029846D-07
    0.971871308764D+00 0.286593750000D+03 0.348043690194D+00-0.806319300721D-08
   -0.194293807403D-09 0.100000000000D+01 0.191000000000D+04 0.000000000000D+00
    0.200000000000D+01 0.000000000000D+00 0.186264514923D-08 0.980000000000D+02
    0.144000000000D+05 0.400000000000D+01 0.000000000000D+00 0.000000000000D+00
28 16  8 14  6  0  0.0 0.544404145330D-03 0.284217094304D-11 0.000000000000D+00
    0.390000000000D+02 0.531250000000D+02 0.396945105786D-08-0.167065037796D+01
    0.294484198093D-05 0.197807197692D-01 0.322610139847D-05 0.515362911987D+04
    0.216000000000D+05 0.216066837311D-06 0.599048532205D+00 0.499188899994D-06
    0.989521697733D+00 0.333625000000D+03-0.161283672590D+01-0.792711591048D-08
   -0.600024993449D-10 0.100000000000D+01 0.191000000000D+04 0.000000000000D+00
    0.200000000000D+01 0.000000000000D+00-0.107102096081D-07 0.390000000000D+02
    0.144000000000D+05 0.400000000000D+01 0.000000000000D+00 0.000000000000D+00
29 16  8 14  6  0  0.0 0.653643626720D-03-0.909494701773D-12 0.000000000000D+00
    0.690000000000D+02-0.793125000000D+02 0.411731435981D-08-0.489297116092D+00
   -0.422261655331D-05 0.639817561023D-03 0.574998557568D-05 0.515376795006D+04
    0.216000000000D+05 0.335276126862D-07 0.162487593605D+01 0.186264514923D-08
    0.977940397040D+00 0.278656250000D+03 0.986873125513D-01-0.800461913880D-08
   -0.251081887140D-09 0.000000000000D+00 0.191000000000D+04 0.000000000000D+00
    0.200000000000D+01 0.000000000000D+00-0.102445483208D-07 0.690000000000D+02
    0.161700000000D+05 0.400000000000D+01 0.000000000000D+00 0.000000000000D+00
30 16  8 14  6  0  0.0 0.145354308188D-03 0.193267624127D-11 0.000000000000D+00
    0.860000000000D+02 0.772500000000D+02 0.467733768703D-08 0.104121828950D+01
    0.410154461861D-05 0.235427729785D-02 0.927224755287D-05 0.515357818222D+04
    0.216000000000D+05 0.279396772385D-07-0.458918663964D+00-0.633299350738D-07
    0.951492783848D+00 0.190968750000D+03 0.313611979952D+01-0.811069498586D-08
   -0.185007706314D-09 0.000000000000D+00 0.191000000000D+04 0.000000000000D+00
    0.280000000000D+01 0.000000000000D+00 0.372529029846D-08 0.860000000000D+02
    0.144000000000D+05 0.400000000000D+01 0.000000000000D+00 0.000000000000D+00
31 16  8 14  6  0  0.0 0.253614038229D-03-0.204636307899D-11 0.000000000000D+00
    0.990000000000D+02 0.824375000000D+02 0.420731810883D-08 0.791953680713D+00
    0.419281423092D-05 0.818897807039D-02 0.940263271332D-05 0.515380743790D+04
    0.216000000000D+05 0.167638063431D-06-0.492228961918D+00-0.279396772385D-07
    0.970505528445D+00 0.199937500000D+03-0.392373857455D+00-0.788068540504D-08
   -0.184650548579D-09 0.000000000000D+00 0.191000000000D+04 0.000000000000D+00
    0.280000000000D+01 0.000000000000D+00-0.135041773319D-07 0.990000000000D+02
    0.144000000000D+05 0.400000000000D+01 0.000000000000D+00 0.000000000000D+00
 1 16  8 14  7 59 44.0 0.303285196423D-04 0.136424205266D-11 0.000000000000D+00
    0.100000000000D+02-0.528750000000D+02 0.404731144391D-08 0.271689241153D+01
   -0.271201133728D-05 0.579154468141D-02 0.110063701868D-04 0.515364425278D+04
    0.287840000000D+05-0.111758708954D-07 0.262259905974D+01-0.204890966415D-07
    0.965344735283D+00 0.168750000000D+03 0.519697964032D+00-0.771532137410D-08
    0.322156276245D-09 0.100000000000D+01 0.191000000000D+04 0.000000000000D+00
    0.200000000000D+01 0.000000000000D+00 0.512227416039D-08 0.100000000000D+02
    0.233400000000D+05 0.400000000000D+01 0.000000000000D+00 0.000000000000D+00
 2 16  8 14  7 59 44.0 0.565416645259D-03-0.443378667114D-11 0.000000000000D+00
    0.400000000000D+01-0.660312500000D+02 0.440375486264D-08 0.313606488450D+01
   -0.331550836563D-05 0.158789362758D-01 0.100620090962D-04 0.515361969566D+04
    0.287840000000D+05 0.111758708954D-06 0.257539510110D+01-0.169500708580D-06
    0.944121620947D+00 0.172875000000D+03-0.209467427495D+01-0.765710466343D-08
    0.258939357292D-09 0.000000000000D+00 0.191000000000D+04 0.000000000000D+00
    0.200000000000D+01 0.000000000000D+00-0.204890966415D-07 0.400000000000D+01
    0.223200000000D+05 0.400000000000D+01 0.000000000000D+00 0.000000000000D+00
 9 16  8 14  7 59 44.0 0.186524819583D-03 0.727595761418D-11 0.000000000000D+00
    0.100000000000D+02-0.110312500000D+02 0.495806366611D-08-0.158783301139D+01
   -0.534579157829D-06 0.495808315463D-03 0.785663723946D-05 0.515380132866D+04
    0.287840000000D+05 0.186264514923D-07-0.158042135638D+01-0.223517417908D-07
    0.954258118875D+00 0.229656250000D+03 0.214584450441D+01-0.812783855710D-08
   -0.323227749447D-09 0.100000000000D+01 0.191000000000D+04 0.000000000000D+00
    0.200000000000D+01 0.000000000000D+00 0.139698386192D-08 0.100000000000D+02
    0.273300000000D+05 0.400000000000D+01 0.000000000000D+00 0.000000000000D+00
11 16  8 14  7 59 44.0-0.659121200442D-03-0.113686837722D-11 0.000000000000D+00
    0.550000000000D+02-0.102281250000D+03 0.550487215716D-08 0.212864335856D+01
   -0.533461570740D-05 0.167239363072D-01 0.896304845810D-05 0.515368034554D+04
    0.287840000000D+05 0.294297933578D-06 0.224012837795D+01-0.106170773506D-06
    0.897636332511D+00 0.168031250000D+03 0.155670905475D+01-0.830570310873D-08
    0.171435712414D-10 0.100000000000D+01 0.191000000000D+04 0.000000000000D+00
    0.200000000000D+01 0.000000000000D+00-0.121071934700D-07 0.550000000000D+02
    0.225900000000D+05 0.400000000000D+01 0.000000000000D+00 0.000000000000D+00
13 16  8 14  7 59 44.0-0.374861992896D-04-0.238742359215D-11 0.000000000000D+00
    0.240000000000D+02-0.125000000000D+02 0.447732935588D-08 0.296963851373D+01
   -0.759959220886D-06 0.405996362679D-02 0.835582613945D-05 0.515368012619D+04
    0.287840000000D+05 0.186264514923D-07-0.145845114815D+01 0.000000000000D+00
    0.970599301494D+00 0.222187500000D+03 0.198286299704D+01-0.783532637279D-08
   -0.360372153804D-09 0.000000000000D+00 0.191000000000D+04 0.000000000000D+00
    0.200000000000D+01 0.000000000000D+00-0.111758708954D-07 0.240000000000D+02
    0.267000000000D+05 0.400000000000D+01 0.000000000000D+00 0.000000000000D+00
